OBJECT_NAME,OBJECT_ID,EPOCH,MEAN_MOTION,ECCENTRICITY,INCLINATION,RA_OF_ASC_NODE,ARG_OF_PERICENTER,MEAN_ANOMALY,EPHEMERIS_TYPE,CLASSIFICATION_TYPE,NORAD_CAT_ID,ELEMENT_SET_NO,REV_AT_EPOCH,BSTAR,MEAN_MOTION_DOT,MEAN_MOTION_DDOT
STARLINK-31296,2024-020D,2024-02-24T14:00:01.999872,15.28097316,0.000134,53.161,178.1987,88.0005,236.8385,0,U,58879,999,531,-0.0061171,-0.00166432,0
STARLINK-31328,2024-020E,2024-02-24T12:06:00.752832,15.78508796,0.0001666,53.1659,175.4566,113.0233,247.0965,0,U,58880,999,535,0.00010844,0.00018584,0
STARLINK-31260,2024-020F,2024-02-23T22:00:01.999584,15.27957063,0.0001197,53.1598,181.2807,89.1315,168.1969,0,U,58881,999,522,0.0024047,0.00066727,0
STARLINK-31323,2024-020G,2024-02-24T14:00:01.999872,15.28156851,0.0001541,53.1596,178.147,79.2069,271.3612,0,U,58882,999,516,-0.0088999,-0.00240066,0
STARLINK-31209,2024-020H,2024-02-23T22:00:01.999584,15.27959798,0.0001387,53.1596,181.2295,89.0217,194.0899,0,U,58883,999,510,0.0022096,0.00061245,0
STARLINK-31315,2024-020J,2024-02-24T08:18:00.833472,15.75111894,0.0002216,53.1595,175.8611,22.7553,337.3565,0,U,58884,999,516,0.0011806,0.00183292,0
STARLINK-31318,2024-020K,2024-02-24T14:00:01.999872,15.2803172,0.0001119,53.1605,177.6284,91.9841,156.0975,0,U,58885,999,516,-0.00043496,-0.00012382,0
STARLINK-31320,2024-020L,2024-02-24T14:00:01.999872,15.28174503,0.0001318,53.1596,178.0956,96.4641,279.8889,0,U,58886,999,531,-0.0087061,-0.00235122,0
STARLINK-31321,2024-020M,2024-02-24T14:00:01.999872,15.28049282,0.0001204,53.1594,178.0446,77.1824,324.8608,0,U,58887,999,515,-0.0031788,-0.00087445,0
STARLINK-30970,2024-020N,2024-02-24T14:00:01.999872,15.28171414,0.0001241,53.1597,178.0918,94.8378,283.3411,0,U,58888,999,531,-0.0080182,-0.00217071,0
STARLINK-31007,2024-020P,2024-02-24T14:00:01.999872,15.28007147,7.74e-05,53.1595,178.0411,118.072,285.7032,0,U,58889,999,532,0.0016226,0.00044846,0
STARLINK-31230,2024-020Q,2024-02-24T06:00:00.999648,15.28011366,0.0001496,53.1593,179.5351,101.0804,292.0531,0,U,58890,999,515,0.000134,3.361e-05,0
STARLINK-31245,2024-020R,2024-02-23T05:21:11.285856,15.9455061,0.0002677,53.1574,180.1857,14.6455,345.465,0,U,58891,999,516,-0.00083474,-0.00328322,4.6756e-05
STARLINK-31254,2024-020S,2024-02-24T06:00:00.999648,15.28014385,0.0001574,53.1593,179.5308,98.6421,296.3237,0,U,58892,999,526,-0.00018202,-5.388e-05,0
STARLINK-31255,2024-020T,2024-02-24T14:00:01.999872,15.28202607,0.0001287,53.1593,177.9422,97.3016,356.2021,0,U,58893,999,531,-0.011563,-0.00309359,0
STARLINK-31243,2024-020U,2024-02-24T12:00:00.999648,15.28718918,0.00013,53.1596,178.3242,110.2926,246.0229,0,U,58894,999,504,-0.037585,-0.00981899,0
STARLINK-31218,2024-020V,2024-02-24T06:00:00.999648,15.32184365,0.0001138,53.1593,179.4448,73.3271,4.705,0,U,58895,999,515,-0.077707,-0.02193709,0
STARLINK-31221,2024-020W,2024-02-24T06:00:00.999648,15.32265056,0.0001184,53.1594,179.4418,70.9715,8.6309,0,U,58896,999,515,-0.077353,-0.02189772,0
STARLINK-31190,2024-020X,2024-02-24T14:00:01.999872,15.32615982,0.0001422,53.1596,177.8555,72.3956,64.7042,0,U,58897,999,504,-0.077467,-0.02214738,0
