STARLINK-31296          
1 58879U 24020D   24055.58335648 -.00166432  00000+0 -61171-2 0  9994
2 58879  53.1610 178.1987 0001340  88.0005 236.8385 15.28097316  5311
STARLINK-31328          
1 58880U 24020E   24055.50417538  .00018584  00000+0  10844-3 0  9991
2 58880  53.1659 175.4566 0001666 113.0233 247.0965 15.78508796  5358
STARLINK-31260          
1 58881U 24020F   24054.91668981  .00066727  00000+0  24047-2 0  9997
2 58881  53.1598 181.2807 0001197  89.1315 168.1969 15.27957063  5229
STARLINK-31323          
1 58882U 24020G   24055.58335648 -.00240066  00000+0 -88999-2 0  9991
2 58882  53.1596 178.1470 0001541  79.2069 271.3612 15.28156851  5160
STARLINK-31209          
1 58883U 24020H   24054.91668981  .00061245  00000+0  22096-2 0  9991
2 58883  53.1596 181.2295 0001387  89.0217 194.0899 15.27959798  5105
STARLINK-31315          
1 58884U 24020J   24055.34584298  .00183292  00000+0  11806-2 0  9992
2 58884  53.1595 175.8611 0002216  22.7553 337.3565 15.75111894  5163
STARLINK-31318          
1 58885U 24020K   24055.58335648 -.00012382  00000+0 -43496-3 0  9996
2 58885  53.1605 177.6284 0001119  91.9841 156.0975 15.28031720  5169
STARLINK-31320          
1 58886U 24020L   24055.58335648 -.00235122  00000+0 -87061-2 0  9991
2 58886  53.1596 178.0956 0001318  96.4641 279.8889 15.28174503  5311
STARLINK-31321          
1 58887U 24020M   24055.58335648 -.00087445  00000+0 -31788-2 0  9990
2 58887  53.1594 178.0446 0001204  77.1824 324.8608 15.28049282  5154
STARLINK-30970          
1 58888U 24020N   24055.58335648 -.00217071  00000+0 -80182-2 0  9993
2 58888  53.1597 178.0918 0001241  94.8378 283.3411 15.28171414  5315
STARLINK-31007          
1 58889U 24020P   24055.58335648  .00044846  00000+0  16226-2 0  9998
2 58889  53.1595 178.0411 0000774 118.0720 285.7032 15.28007147  5329
STARLINK-31230          
1 58890U 24020Q   24055.25001157  .00003361  00000+0  13400-3 0  9998
2 58890  53.1593 179.5351 0001496 101.0804 292.0531 15.28011366  5159
STARLINK-31245          
1 58891U 24020R   24054.22304729 -.00328322  46756-4 -83474-3 0  9996
2 58891  53.1574 180.1857 0002677  14.6455 345.4650 15.94550610  5160
STARLINK-31254          
1 58892U 24020S   24055.25001157 -.00005388  00000+0 -18202-3 0  9998
2 58892  53.1593 179.5308 0001574  98.6421 296.3237 15.28014385  5262
STARLINK-31255          
1 58893U 24020T   24055.58335648 -.00309359  00000+0 -11563-1 0  9996
2 58893  53.1593 177.9422 0001287  97.3016 356.2021 15.28202607  5318
STARLINK-31243          
1 58894U 24020U   24055.50001157 -.00981899  00000+0 -37585-1 0  9991
2 58894  53.1596 178.3242 0001300 110.2926 246.0229 15.28718918  5041
STARLINK-31218          
1 58895U 24020V   24055.25001157 -.02193709  00000+0 -77707-1 0  9991
2 58895  53.1593 179.4448 0001138  73.3271   4.7050 15.32184365  5151
STARLINK-31221          
1 58896U 24020W   24055.25001157 -.02189772  00000+0 -77353-1 0  9994
2 58896  53.1594 179.4418 0001184  70.9715   8.6309 15.32265056  5154
STARLINK-31190          
1 58897U 24020X   24055.58335648 -.02214738  00000+0 -77467-1 0  9993
2 58897  53.1596 177.8555 0001422  72.3956  64.7042 15.32615982  5041
